{
  "type": "FeatureCollection",
  "crs": {
    "type": "name",
    "properties": {
      "name": "urn:ogc:def:crs:OGC:1.3:CRS84"
    }
  },
  "features": [
    {
      "type": "Feature",
      "properties": {
        "sector": "01",
        "name": "Sector 01",
        "area_m2": 1048421.26,
        "area_ha": 104.84,
        "utm_zone": "19S"
      },
      "geometry": {
        "type": "Polygon",
        "coordinates": [
          [
            [
              -69.1845293255204,
              -12.588931405703285
            ],
            [
              -69.18689214868525,
              -12.586946693110312
            ],
            [
              -69.18559862163417,
              -12.585500756472621
            ],
            [
              -69.1868588217194,
              -12.584434050854984
            ],
            [
              -69.18675483377794,
              -12.584315525408348
            ],
            [
              -69.18921238174974,
              -12.581967023301049
            ],
            [
              -69.19047974436081,
              -12.578924918993126
            ],
            [
              -69.19125921758108,
              -12.57859181803224
            ],
            [
              -69.19164526374034,
              -12.578780632612254
            ],
            [
              -69.19379091003489,
              -12.579972895625568
            ],
            [
              -69.19379091003489,
              -12.579972895625568
            ],
            [
              -69.19323012741452,
              -12.582165036556956
            ],
            [
              -69.19350892330736,
              -12.582381784238079
            ],
            [
              -69.1939993221674,
              -12.582578389518716
            ],
            [
              -69.19438380359622,
              -12.582512037014343
            ],
            [
              -69.19490372757953,
              -12.58482866247649
            ],
            [
              -69.19614255722875,
              -12.58460655264631
            ],
            [
              -69.19708760490502,
              -12.584216850052526
            ],
            [
              -69.19784110730293,
              -12.583991263784167
            ],
            [
              -69.19764949985556,
              -12.584909569402475
            ],
            [
              -69.19445177444743,
              -12.587712433292323
            ],
            [
              -69.1926294454907,
              -12.589260203773035
            ],
            [
              -69.18836595883354,
              -12.593097553110217
            ],
            [
              -69.1860546848975,
              -12.59063806697312
            ],
            [
              -69.1845293255204,
              -12.588931405703285
            ]
          ]
        ]
      }
    },
    {
      "type": "Feature",
      "properties": {
        "sector": "02",
        "name": "Sector 02",
        "area_m2": 1829714.75,
        "area_ha": 182.97,
        "utm_zone": "19S"
      },
      "geometry": {
        "type": "Polygon",
        "coordinates": [
          [
            [
              -69.18836595883354,
              -12.593097553110217
            ],
            [
              -69.1860546848975,
              -12.59063806697312
            ],
            [
              -69.1845293255204,
              -12.588931405703285
            ],
            [
              -69.18224892188066,
              -12.590895480275643
            ],
            [
              -69.18224812823956,
              -12.589771197574219
            ],
            [
              -69.1816743830679,
              -12.589121265415098
            ],
            [
              -69.17869231565267,
              -12.589682690130006
            ],
            [
              -69.1731314084496,
              -12.593154893493598
            ],
            [
              -69.16807752843651,
              -12.596291752894862
            ],
            [
              -69.17075841545595,
              -12.596923011427531
            ],
            [
              -69.17160349411645,
              -12.597197931312564
            ],
            [
              -69.17448205281255,
              -12.599204886894157
            ],
            [
              -69.17448205281255,
              -12.599204886894157
            ],
            [
              -69.18051131000968,
              -12.603304617546213
            ],
            [
              -69.18253541531503,
              -12.604607910676455
            ],
            [
              -69.18491130072103,
              -12.604997803662005
            ],
            [
              -69.18609259185922,
              -12.603877428057729
            ],
            [
              -69.18322572369226,
              -12.600777153159171
            ],
            [
              -69.18169545474113,
              -12.599113793577915
            ],
            [
              -69.18836595883354,
              -12.593097553110217
            ]
          ]
        ]
      }
    },
    {
      "type": "Feature",
      "properties": {
        "sector": "03",
        "name": "Sector 03",
        "area_m2": 2571649.61,
        "area_ha": 257.16,
        "utm_zone": "19S"
      },
      "geometry": {
        "type": "Polygon",
        "coordinates": [
          [
            [
              -69.1968529012596,
              -12.611499706758098
            ],
            [
              -69.19561020995809,
              -12.61361961899115
            ],
            [
              -69.1928153792033,
              -12.61233033420993
            ],
            [
              -69.19102294171232,
              -12.611017927986302
            ],
            [
              -69.1898513217478,
              -12.609023993205197
            ],
            [
              -69.18491130072103,
              -12.604997803662005
            ],
            [
              -69.18609259185922,
              -12.603877428057729
            ],
            [
              -69.18322572369226,
              -12.600777153159171
            ],
            [
              -69.18169545474113,
              -12.599113793577915
            ],
            [
              -69.18836595883354,
              -12.593097553110217
            ],
            [
              -69.19280838644406,
              -12.5979203534162
            ],
            [
              -69.19443596873103,
              -12.599642280847252
            ],
            [
              -69.20115018917271,
              -12.599602179687354
            ],
            [
              -69.2024452336442,
              -12.599751867234517
            ],
            [
              -69.20239652414206,
              -12.602687709678497
            ],
            [
              -69.2010984413669,
              -12.60258315139149
            ],
            [
              -69.200927928638,
              -12.605478611407372
            ],
            [
              -69.20038815860771,
              -12.608224404267572
            ],
            [
              -69.1968529012596,
              -12.611499706758098
            ]
          ]
        ]
      }
    },
    {
      "type": "Feature",
      "properties": {
        "sector": "04",
        "name": "Sector 04",
        "area_m2": 1757742.14,
        "area_ha": 175.77,
        "utm_zone": "19S"
      },
      "geometry": {
        "type": "Polygon",
        "coordinates": [
          [
            [
              -69.19443596873103,
              -12.599642280847252
            ],
            [
              -69.20115018917271,
              -12.599602179687354
            ],
            [
              -69.20132102505842,
              -12.594868765216324
            ],
            [
              -69.20201145528922,
              -12.589752278244266
            ],
            [
              -69.20287488083325,
              -12.58350633254334
            ],
            [
              -69.20095484652298,
              -12.583297618681621
            ],
            [
              -69.19784110730293,
              -12.583991263784167
            ],
            [
              -69.19764949985556,
              -12.584909569402475
            ],
            [
              -69.19445177444743,
              -12.587712433292323
            ],
            [
              -69.1926294454907,
              -12.589260203773035
            ],
            [
              -69.18836595883354,
              -12.593097553110217
            ],
            [
              -69.19280838644406,
              -12.5979203534162
            ],
            [
              -69.19443596873103,
              -12.599642280847252
            ]
          ]
        ]
      }
    },
    {
      "type": "Feature",
      "properties": {
        "sector": "05",
        "name": "Sector 05",
        "area_m2": 1535564.69,
        "area_ha": 153.56,
        "utm_zone": "19S"
      },
      "geometry": {
        "type": "Polygon",
        "coordinates": [
          [
            [
              -69.21983629560499,
              -12.597494307392337
            ],
            [
              -69.21961880952468,
              -12.592091316354074
            ],
            [
              -69.20201144894415,
              -12.5897522774656
            ],
            [
              -69.20132102505842,
              -12.594868765216324
            ],
            [
              -69.20115018917271,
              -12.599602179687354
            ],
            [
              -69.2024452336442,
              -12.599751867234517
            ],
            [
              -69.20530955558125,
              -12.600662959096589
            ],
            [
              -69.20670958671916,
              -12.601138557537071
            ],
            [
              -69.20674204605497,
              -12.599914773865496
            ],
            [
              -69.20797958260665,
              -12.599536397162462
            ],
            [
              -69.20779607723503,
              -12.59901664790259
            ],
            [
              -69.2082393991107,
              -12.595779145268558
            ],
            [
              -69.21983629560499,
              -12.597494307392337
            ]
          ]
        ]
      }
    },
    {
      "type": "Feature",
      "properties": {
        "sector": "06",
        "name": "Sector 06",
        "area_m2": 1791712.24,
        "area_ha": 179.17,
        "utm_zone": "19S"
      },
      "geometry": {
        "type": "Polygon",
        "coordinates": [
          [
            [
              -69.21961880952468,
              -12.592091316354074
            ],
            [
              -69.21945527989564,
              -12.584526017511742
            ],
            [
              -69.21834153585164,
              -12.583759572814065
            ],
            [
              -69.21704544761934,
              -12.583619817922774
            ],
            [
              -69.21134591180781,
              -12.583712922730497
            ],
            [
              -69.21057848968812,
              -12.582844061887906
            ],
            [
              -69.20698692722011,
              -12.581017134425801
            ],
            [
              -69.20611455181852,
              -12.578977226864382
            ],
            [
              -69.20514757870116,
              -12.577802036939435
            ],
            [
              -69.20514757870116,
              -12.577802036939435
            ],
            [
              -69.20353140274642,
              -12.578794353918365
            ],
            [
              -69.20318841312913,
              -12.580854373310865
            ],
            [
              -69.20287488083325,
              -12.58350633254334
            ],
            [
              -69.20201144894415,
              -12.5897522774656
            ],
            [
              -69.21961880952468,
              -12.592091316354074
            ]
          ]
        ]
      }
    },
    {
      "type": "Feature",
      "properties": {
        "sector": "07",
        "name": "Sector 07",
        "area_m2": 1568107.43,
        "area_ha": 156.81,
        "utm_zone": "19S"
      },
      "geometry": {
        "type": "Polygon",
        "coordinates": [
          [
            [
              -69.19125921758108,
              -12.57859181803224
            ],
            [
              -69.19062680353413,
              -12.57840580320255
            ],
            [
              -69.19107768347556,
              -12.576870205611327
            ],
            [
              -69.19144308359758,
              -12.575516884899615
            ],
            [
              -69.19214515085301,
              -12.57540680291932
            ],
            [
              -69.19256603549648,
              -12.575324734621525
            ],
            [
              -69.19223918111835,
              -12.573869578970832
            ],
            [
              -69.20574334329778,
              -12.571019958583967
            ],
            [
              -69.20481714354614,
              -12.572206886571534
            ],
            [
              -69.2045869465464,
              -12.573282192804339
            ],
            [
              -69.20456636124017,
              -12.574407927925053
            ],
            [
              -69.20482484103023,
              -12.576631290461608
            ],
            [
              -69.20514757870116,
              -12.577802036939435
            ],
            [
              -69.20353140274642,
              -12.578794353918365
            ],
            [
              -69.20318841312913,
              -12.580854373310865
            ],
            [
              -69.20287488083325,
              -12.58350633254334
            ],
            [
              -69.20095484652298,
              -12.583297618681621
            ],
            [
              -69.19784110730293,
              -12.583991263784167
            ],
            [
              -69.19708760490502,
              -12.584216850052526
            ],
            [
              -69.19614255722875,
              -12.58460655264631
            ],
            [
              -69.19490372757953,
              -12.58482866247649
            ],
            [
              -69.19438380359641,
              -12.58251203701431
            ],
            [
              -69.1939993221674,
              -12.582578389518716
            ],
            [
              -69.19350892330736,
              -12.582381784238079
            ],
            [
              -69.19323012741452,
              -12.582165036556956
            ],
            [
              -69.19379091003489,
              -12.579972895625568
            ],
            [
              -69.19164526374034,
              -12.578780632612254
            ],
            [
              -69.19125921758108,
              -12.57859181803224
            ]
          ]
        ]
      }
    },
    {
      "type": "Feature",
      "properties": {
        "sector": "08",
        "name": "Sector 08",
        "area_m2": 2482153.19,
        "area_ha": 248.22,
        "utm_zone": "19S"
      },
      "geometry": {
        "type": "Polygon",
        "coordinates": [
          [
            [
              -69.20574334329778,
              -12.571019958583967
            ],
            [
              -69.19223918111825,
              -12.573869578970832
            ],
            [
              -69.18941121679579,
              -12.561573836121287
            ],
            [
              -69.20976776355512,
              -12.556931928922937
            ],
            [
              -69.20777022180495,
              -12.560158625093734
            ],
            [
              -69.20658494402426,
              -12.561183853355939
            ],
            [
              -69.20682557417953,
              -12.562319701103771
            ],
            [
              -69.20606860798918,
              -12.562730064929646
            ],
            [
              -69.2056917757555,
              -12.565428943749911
            ],
            [
              -69.20601523971037,
              -12.566249025472079
            ],
            [
              -69.20582998369882,
              -12.570656494027373
            ],
            [
              -69.20574334329778,
              -12.571019958583967
            ]
          ]
        ]
      }
    },
    {
      "type": "Feature",
      "properties": {
        "sector": "09",
        "name": "Sector 09",
        "area_m2": 2624274.36,
        "area_ha": 262.43,
        "utm_zone": "19S"
      },
      "geometry": {
        "type": "Polygon",
        "coordinates": [
          [
            [
              -69.21282656035437,
              -12.619047007912155
            ],
            [
              -69.2163379419619,
              -12.617913500210395
            ],
            [
              -69.22076595238413,
              -12.609638758199738
            ],
            [
              -69.21996778666418,
              -12.60630786649519
            ],
            [
              -69.2197408765137,
              -12.599742393442174
            ],
            [
              -69.21988560915477,
              -12.599545793270797
            ],
            [
              -69.21983629560499,
              -12.597494307392337
            ],
            [
              -69.2082393991107,
              -12.595779145268558
            ],
            [
              -69.20779607723503,
              -12.59901664790259
            ],
            [
              -69.20797958260664,
              -12.599536397162428
            ],
            [
              -69.20674204605497,
              -12.599914773865496
            ],
            [
              -69.20670958671916,
              -12.601138557537071
            ],
            [
              -69.20530955558125,
              -12.600662959096589
            ],
            [
              -69.2024452336442,
              -12.599751867234517
            ],
            [
              -69.20239652414206,
              -12.602687709678497
            ],
            [
              -69.20595951230213,
              -12.6031119807515
            ],
            [
              -69.21279828225308,
              -12.61070141618947
            ],
            [
              -69.21279828225308,
              -12.61070141618947
            ],
            [
              -69.2120295232139,
              -12.61122517089187
            ],
            [
              -69.21282656035437,
              -12.619047007912155
            ]
          ]
        ]
      }
    },
    {
      "type": "Feature",
      "properties": {
        "sector": "10",
        "name": "Sector 10",
        "area_m2": 2298629.03,
        "area_ha": 229.86,
        "utm_zone": "19S"
      },
      "geometry": {
        "type": "Polygon",
        "coordinates": [
          [
            [
              -69.2130004740434,
              -12.620753665327888
            ],
            [
              -69.2120295232139,
              -12.61122517089187
            ],
            [
              -69.21279828225308,
              -12.61070141618947
            ],
            [
              -69.20595951230213,
              -12.6031119807515
            ],
            [
              -69.20239652414206,
              -12.602687709678497
            ],
            [
              -69.2010984413669,
              -12.60258315139149
            ],
            [
              -69.200927928638,
              -12.605478611407372
            ],
            [
              -69.20038815860771,
              -12.608224404267572
            ],
            [
              -69.1968529012596,
              -12.611499706758098
            ],
            [
              -69.19825269131475,
              -12.613453635921669
            ],
            [
              -69.19992122089482,
              -12.61454488814374
            ],
            [
              -69.19932568185841,
              -12.615086543952918
            ],
            [
              -69.20075001790804,
              -12.616701412580806
            ],
            [
              -69.20239754094007,
              -12.618198299421461
            ],
            [
              -69.20771262324261,
              -12.621145474747992
            ],
            [
              -69.2130004740434,
              -12.620753665327888
            ]
          ]
        ]
      }
    },
    {
      "type": "Feature",
      "properties": {
        "sector": "11",
        "name": "Sector 11",
        "area_m2": 2981340.85,
        "area_ha": 298.13,
        "utm_zone": "19S"
      },
      "geometry": {
        "type": "Polygon",
        "coordinates": [
          [
            [
              -69.23772448485347,
              -12.592203431538413
            ],
            [
              -69.24250056977226,
              -12.5935633957978
            ],
            [
              -69.23598841892988,
              -12.604821087331695
            ],
            [
              -69.22301595799426,
              -12.600529899249082
            ],
            [
              -69.21988560915477,
              -12.599545793270797
            ],
            [
              -69.21961883417492,
              -12.592091319377499
            ],
            [
              -69.21950186564173,
              -12.58668125678873
            ],
            [
              -69.23082854462345,
              -12.590703135535122
            ],
            [
              -69.23772448485347,
              -12.592203431538413
            ]
          ]
        ]
      }
    }
  ]
}