{
  "type": "FeatureCollection",
  "crs": {
    "type": "name",
    "properties": {
      "name": "urn:ogc:def:crs:OGC:1.3:CRS84"
    }
  },
  "features": [
    {
      "type": "Feature",
      "properties": {
        "id": "Bz-01",
        "name": "Buzón 01 (Válvula de Aire)",
        "location": "Av. Madre de Dios - Jr. Amazonas",
        "cota_terreno_m": 247.928,
        "cota_fondo_m": 245.698,
        "altura_m": 2.23,
        "utm_easting": 479214.95,
        "utm_northing": 8607465.01,
        "utm_zone": "19S",
        "identified": true
      },
      "geometry": {
        "type": "Point",
        "coordinates": [
          -69.19136615745548,
          -12.59661354785782
        ]
      }
    },
    {
      "type": "Feature",
      "properties": {
        "id": "Bz-02",
        "name": "Buzón 02 (Válvula de Aire)",
        "location": "Jr. Crosby - Jr. Amazonas",
        "cota_terreno_m": 240.567,
        "cota_fondo_m": 238.427,
        "altura_m": 2.14,
        "utm_easting": 479098.59,
        "utm_northing": 8607610.61,
        "utm_zone": "19S",
        "identified": true
      },
      "geometry": {
        "type": "Point",
        "coordinates": [
          -69.19243651863945,
          -12.595296172659477
        ]
      }
    },
    {
      "type": "Feature",
      "properties": {
        "id": "Bz-03",
        "name": "Buzón 03 (Válvula de Aire)",
        "location": "Jr. Junín - Av. Tambopata",
        "cota_terreno_m": null,
        "cota_fondo_m": null,
        "altura_m": null,
        "utm_easting": 478740.28,
        "utm_northing": 8607757.49,
        "utm_zone": "19S",
        "identified": true
      },
      "geometry": {
        "type": "Point",
        "coordinates": [
          -69.19573445650036,
          -12.593965519540724
        ]
      }
    },
    {
      "type": "Feature",
      "properties": {
        "id": "Bz-04",
        "name": "Buzón 04 (Válvula de Aire)",
        "location": "Jr. Ica - Av. Tambopata",
        "cota_terreno_m": null,
        "cota_fondo_m": null,
        "altura_m": null,
        "utm_easting": 479135.49,
        "utm_northing": 8608225.36,
        "utm_zone": "19S",
        "identified": true
      },
      "geometry": {
        "type": "Point",
        "coordinates": [
          -69.19209263154285,
          -12.58973720598906
        ]
      }
    },
    {
      "type": "Feature",
      "properties": {
        "id": "Bz-05",
        "name": "Buzón 05 (Válvula de Aire)",
        "location": "Jr. Piura - Av. Fitzcarrald",
        "cota_terreno_m": 234.007,
        "cota_fondo_m": 231.287,
        "altura_m": 2.72,
        "utm_easting": 479787.08,
        "utm_northing": 8607383.48,
        "utm_zone": "19S",
        "identified": true
      },
      "geometry": {
        "type": "Point",
        "coordinates": [
          -69.1860992192436,
          -12.597354509400844
        ]
      }
    },
    {
      "type": "Feature",
      "properties": {
        "id": "Valvula_Aire_Aux_05",
        "name": "Válvula de Aire (Auxiliar 05)",
        "location": "Av. Circunvalación",
        "cota_terreno_m": null,
        "cota_fondo_m": null,
        "altura_m": null,
        "utm_easting": 478491.39,
        "utm_northing": 8608232.63,
        "utm_zone": "19S",
        "identified": false
      },
      "geometry": {
        "type": "Point",
        "coordinates": [
          -69.19802262049234,
          -12.58966716011749
        ]
      }
    },
    {
      "type": "Feature",
      "properties": {
        "id": "Valvula_Aire_Aux_06",
        "name": "Válvula de Aire (Auxiliar 06)",
        "location": "Av. Circunvalación",
        "cota_terreno_m": null,
        "cota_fondo_m": null,
        "altura_m": null,
        "utm_easting": 477502.82,
        "utm_northing": 8608240.7,
        "utm_zone": "19S",
        "identified": false
      },
      "geometry": {
        "type": "Point",
        "coordinates": [
          -69.20712389730437,
          -12.5895873417987
        ]
      }
    },
    {
      "type": "Feature",
      "properties": {
        "id": "Valvula_Aire_Aux_07",
        "name": "Válvula de Aire (Auxiliar 07)",
        "location": "Av. Circunvalación",
        "cota_terreno_m": null,
        "cota_fondo_m": null,
        "altura_m": null,
        "utm_easting": 477661.75,
        "utm_northing": 8608164.93,
        "utm_zone": "19S",
        "identified": false
      },
      "geometry": {
        "type": "Point",
        "coordinates": [
          -69.20566125911029,
          -12.590273606299283
        ]
      }
    },
    {
      "type": "Feature",
      "properties": {
        "id": "Valvula_Aire_Aux_08",
        "name": "Válvula de Aire (Auxiliar 08)",
        "location": "Av. Circunvalación",
        "cota_terreno_m": null,
        "cota_fondo_m": null,
        "altura_m": null,
        "utm_easting": 478074.89,
        "utm_northing": 8608217.67,
        "utm_zone": "19S",
        "identified": false
      },
      "geometry": {
        "type": "Point",
        "coordinates": [
          -69.20185729967048,
          -12.589799568159188
        ]
      }
    }
  ]
}